IRIDIUM 63              
1 25286U 98021B   25349.13439681  .00000411  00000+0  13270-3 0  9992
2 25286  86.3984   6.2095 0002384  88.1580 271.9890 14.36737416449827
IRIDIUM 69              
1 25319U 98026A   25349.14497530  .00000474  00000+0  14068-3 0  9997
2 25319  86.3977  18.9218 0004131 120.7919 239.3687 14.41219330449125
IRIDIUM 71              
1 25320U 98026B   25349.33985577  .00000324  00000+0  93889-4 0  9996
2 25320  86.3976  13.5117 0002234 148.7116 211.4217 14.41319445449685
IRIDIUM 73              
1 25344U 98032C   25349.32871791  .00000724  00000+0  17420-3 0  9990
2 25344  86.4407 329.8884 0002986  91.9052 268.2496 14.51993475456844
IRIDIUM 82              
1 25467U 98051A   25349.36512731  .00031923  00000+0  59070-3 0  9999
2 25467  86.3611  19.7871 0059709 324.8816  34.8511 15.46862720451807
